STARLINK-36576          
1 67534U 26014C   26042.21460353  .00283864  00000+0  14264-2 0  9995
2 67534  97.2837 285.8107 0001200  82.3048 277.8357 15.80947927  4401
STARLINK-36574          
1 67535U 26014D   26042.21333405  .00280658  00000+0  14130-2 0  9993
2 67535  97.2841 285.8124 0001110  98.6090 261.5304 15.80914642  4403
STARLINK-36572          
1 67536U 26014E   26042.25001157 -.00109897  00000+0 -74400-3 0  9998
2 67536  97.2882 285.8296 0001611 100.6742  59.3454 15.75233370  4431
STARLINK-36561          
1 67537U 26014F   26042.22779572  .00128447  00000+0  84782-3 0  9993
2 67537  97.2856 285.7897 0001317  80.3765 279.7649 15.75225913  4406
STARLINK-36397          
1 67538U 26014G   26042.23167755  .00202307  00000+0  13214-2 0  9998
2 67538  97.2850 285.7851 0001193  92.2022 267.9379 15.75258153  4402
STARLINK-36573          
1 67539U 26014H   26042.20921308  .00200193  00000+0  10197-2 0  9996
2 67539  97.2843 285.8163 0001407 108.4062 251.7359 15.80867411  4402
STARLINK-36585          
1 67540U 26014J   26042.22356082  .00246523  00000+0  16010-2 0  9998
2 67540  97.2856 285.7938 0001104 100.8505 259.2885 15.75267961  4404
STARLINK-36579          
1 67541U 26014K   26042.25001157 -.00059960  00000+0 -40338-3 0  9992
2 67541  97.2850 285.8446 0001590  91.6469 102.3681 15.75221660  4430
STARLINK-35934          
1 67542U 26014L   26042.14228457  .00248885  00000+0  12622-2 0  9993
2 67542  97.2839 285.7543 0001032  65.2723 294.8652 15.80836810  4380
STARLINK-36581          
1 67543U 26014M   26042.20439028  .00268162  00000+0  13513-2 0  9999
2 67543  97.2843 285.8216 0001545 111.2678 248.8755 15.80926046  4401
STARLINK-36565          
1 67544U 26014N   26042.26663484  .00230693  00000+0  11683-2 0  9995
2 67544  97.2842 285.8911 0001554  93.1485 266.9961 15.80913302  4419
STARLINK-36583          
1 67545U 26014P   26042.21967833  .00243309  00000+0  15812-2 0  9992
2 67545  97.2851 285.8006 0001361 111.1559 248.9852 15.75261520  4404
