CCSDS_OMM_VERS = 2.0
CREATION_DATE  = 
ORIGINATOR     = 

OBJECT_NAME    = STARLINK-36576
OBJECT_ID      = 2026-014C
CENTER_NAME    = EARTH
REF_FRAME      = TEME
TIME_SYSTEM    = UTC
MEAN_ELEMENT_THEORY = SGP/SGP4

EPOCH          = 2026-02-11T05:09:01.744992
MEAN_MOTION    = 15.80947927
ECCENTRICITY   = .00012002
INCLINATION    = 97.2837
RA_OF_ASC_NODE = 285.8107
ARG_OF_PERICENTER = 82.3048
MEAN_ANOMALY   = 277.8357

EPHEMERIS_TYPE = 0
CLASSIFICATION_TYPE = U
NORAD_CAT_ID   = 67534
ELEMENT_SET_NO = 999
REV_AT_EPOCH   = 440
BSTAR          = .1426394E-2
MEAN_MOTION_DOT = .283864E-2
MEAN_MOTION_DDOT = 0

CCSDS_OMM_VERS = 2.0
CREATION_DATE  = 
ORIGINATOR     = 

OBJECT_NAME    = STARLINK-36574
OBJECT_ID      = 2026-014D
CENTER_NAME    = EARTH
REF_FRAME      = TEME
TIME_SYSTEM    = UTC
MEAN_ELEMENT_THEORY = SGP/SGP4

EPOCH          = 2026-02-11T05:07:12.061920
MEAN_MOTION    = 15.80914642
ECCENTRICITY   = .00011105
INCLINATION    = 97.2841
RA_OF_ASC_NODE = 285.8124
ARG_OF_PERICENTER = 98.6090
MEAN_ANOMALY   = 261.5304

EPHEMERIS_TYPE = 0
CLASSIFICATION_TYPE = U
NORAD_CAT_ID   = 67535
ELEMENT_SET_NO = 999
REV_AT_EPOCH   = 440
BSTAR          = .14129552E-2
MEAN_MOTION_DOT = .280658E-2
MEAN_MOTION_DDOT = 0

CCSDS_OMM_VERS = 2.0
CREATION_DATE  = 
ORIGINATOR     = 

OBJECT_NAME    = STARLINK-36572
OBJECT_ID      = 2026-014E
CENTER_NAME    = EARTH
REF_FRAME      = TEME
TIME_SYSTEM    = UTC
MEAN_ELEMENT_THEORY = SGP/SGP4

EPOCH          = 2026-02-11T06:00:00.999648
MEAN_MOTION    = 15.75233370
ECCENTRICITY   = .00016113
INCLINATION    = 97.2882
RA_OF_ASC_NODE = 285.8296
ARG_OF_PERICENTER = 100.6742
MEAN_ANOMALY   = 59.3454

EPHEMERIS_TYPE = 0
CLASSIFICATION_TYPE = U
NORAD_CAT_ID   = 67536
ELEMENT_SET_NO = 999
REV_AT_EPOCH   = 443
BSTAR          = -.743997E-3
MEAN_MOTION_DOT = -.109897E-2
MEAN_MOTION_DDOT = 0

CCSDS_OMM_VERS = 2.0
CREATION_DATE  = 
ORIGINATOR     = 

OBJECT_NAME    = STARLINK-36561
OBJECT_ID      = 2026-014F
CENTER_NAME    = EARTH
REF_FRAME      = TEME
TIME_SYSTEM    = UTC
MEAN_ELEMENT_THEORY = SGP/SGP4

EPOCH          = 2026-02-11T05:28:01.550208
MEAN_MOTION    = 15.75225913
ECCENTRICITY   = .00013172
INCLINATION    = 97.2856
RA_OF_ASC_NODE = 285.7897
ARG_OF_PERICENTER = 80.3765
MEAN_ANOMALY   = 279.7649

EPHEMERIS_TYPE = 0
CLASSIFICATION_TYPE = U
NORAD_CAT_ID   = 67537
ELEMENT_SET_NO = 999
REV_AT_EPOCH   = 440
BSTAR          = .84782426E-3
MEAN_MOTION_DOT = .128447E-2
MEAN_MOTION_DDOT = 0

CCSDS_OMM_VERS = 2.0
CREATION_DATE  = 
ORIGINATOR     = 

OBJECT_NAME    = STARLINK-36397
OBJECT_ID      = 2026-014G
CENTER_NAME    = EARTH
REF_FRAME      = TEME
TIME_SYSTEM    = UTC
MEAN_ELEMENT_THEORY = SGP/SGP4

EPOCH          = 2026-02-11T05:33:36.940320
MEAN_MOTION    = 15.75258153
ECCENTRICITY   = .00011931
INCLINATION    = 97.2850
RA_OF_ASC_NODE = 285.7851
ARG_OF_PERICENTER = 92.2022
MEAN_ANOMALY   = 267.9379

EPHEMERIS_TYPE = 0
CLASSIFICATION_TYPE = U
NORAD_CAT_ID   = 67538
ELEMENT_SET_NO = 999
REV_AT_EPOCH   = 440
BSTAR          = .1321447E-2
MEAN_MOTION_DOT = .202307E-2
MEAN_MOTION_DDOT = 0

CCSDS_OMM_VERS = 2.0
CREATION_DATE  = 
ORIGINATOR     = 

OBJECT_NAME    = STARLINK-36573
OBJECT_ID      = 2026-014H
CENTER_NAME    = EARTH
REF_FRAME      = TEME
TIME_SYSTEM    = UTC
MEAN_ELEMENT_THEORY = SGP/SGP4

EPOCH          = 2026-02-11T05:01:16.010112
MEAN_MOTION    = 15.80867411
ECCENTRICITY   = .00014077
INCLINATION    = 97.2843
RA_OF_ASC_NODE = 285.8163
ARG_OF_PERICENTER = 108.4062
MEAN_ANOMALY   = 251.7359

EPHEMERIS_TYPE = 0
CLASSIFICATION_TYPE = U
NORAD_CAT_ID   = 67539
ELEMENT_SET_NO = 999
REV_AT_EPOCH   = 440
BSTAR          = .10196855E-2
MEAN_MOTION_DOT = .200193E-2
MEAN_MOTION_DDOT = 0

CCSDS_OMM_VERS = 2.0
CREATION_DATE  = 
ORIGINATOR     = 

OBJECT_NAME    = STARLINK-36585
OBJECT_ID      = 2026-014J
CENTER_NAME    = EARTH
REF_FRAME      = TEME
TIME_SYSTEM    = UTC
MEAN_ELEMENT_THEORY = SGP/SGP4

EPOCH          = 2026-02-11T05:21:55.654848
MEAN_MOTION    = 15.75267961
ECCENTRICITY   = .00011048
INCLINATION    = 97.2856
RA_OF_ASC_NODE = 285.7938
ARG_OF_PERICENTER = 100.8505
MEAN_ANOMALY   = 259.2885

EPHEMERIS_TYPE = 0
CLASSIFICATION_TYPE = U
NORAD_CAT_ID   = 67540
ELEMENT_SET_NO = 999
REV_AT_EPOCH   = 440
BSTAR          = .16010014E-2
MEAN_MOTION_DOT = .246523E-2
MEAN_MOTION_DDOT = 0

CCSDS_OMM_VERS = 2.0
CREATION_DATE  = 
ORIGINATOR     = 

OBJECT_NAME    = STARLINK-36579
OBJECT_ID      = 2026-014K
CENTER_NAME    = EARTH
REF_FRAME      = TEME
TIME_SYSTEM    = UTC
MEAN_ELEMENT_THEORY = SGP/SGP4

EPOCH          = 2026-02-11T06:00:00.999648
MEAN_MOTION    = 15.75221660
ECCENTRICITY   = .00015902
INCLINATION    = 97.2850
RA_OF_ASC_NODE = 285.8446
ARG_OF_PERICENTER = 91.6469
MEAN_ANOMALY   = 102.3681

EPHEMERIS_TYPE = 0
CLASSIFICATION_TYPE = U
NORAD_CAT_ID   = 67541
ELEMENT_SET_NO = 999
REV_AT_EPOCH   = 443
BSTAR          = -.4033803E-3
MEAN_MOTION_DOT = -.5996E-3
MEAN_MOTION_DDOT = 0

CCSDS_OMM_VERS = 2.0
CREATION_DATE  = 
ORIGINATOR     = 

OBJECT_NAME    = STARLINK-35934
OBJECT_ID      = 2026-014L
CENTER_NAME    = EARTH
REF_FRAME      = TEME
TIME_SYSTEM    = UTC
MEAN_ELEMENT_THEORY = SGP/SGP4

EPOCH          = 2026-02-11T03:24:53.386848
MEAN_MOTION    = 15.80836810
ECCENTRICITY   = .00010322
INCLINATION    = 97.2839
RA_OF_ASC_NODE = 285.7543
ARG_OF_PERICENTER = 65.2723
MEAN_ANOMALY   = 294.8652

EPHEMERIS_TYPE = 0
CLASSIFICATION_TYPE = U
NORAD_CAT_ID   = 67542
ELEMENT_SET_NO = 999
REV_AT_EPOCH   = 438
BSTAR          = .12621652E-2
MEAN_MOTION_DOT = .248885E-2
MEAN_MOTION_DDOT = 0

CCSDS_OMM_VERS = 2.0
CREATION_DATE  = 
ORIGINATOR     = 

OBJECT_NAME    = STARLINK-36581
OBJECT_ID      = 2026-014M
CENTER_NAME    = EARTH
REF_FRAME      = TEME
TIME_SYSTEM    = UTC
MEAN_ELEMENT_THEORY = SGP/SGP4

EPOCH          = 2026-02-11T04:54:19.320192
MEAN_MOTION    = 15.80926046
ECCENTRICITY   = .00015453
INCLINATION    = 97.2843
RA_OF_ASC_NODE = 285.8216
ARG_OF_PERICENTER = 111.2678
MEAN_ANOMALY   = 248.8755

EPHEMERIS_TYPE = 0
CLASSIFICATION_TYPE = U
NORAD_CAT_ID   = 67543
ELEMENT_SET_NO = 999
REV_AT_EPOCH   = 440
BSTAR          = .13513342E-2
MEAN_MOTION_DOT = .268162E-2
MEAN_MOTION_DDOT = 0

CCSDS_OMM_VERS = 2.0
CREATION_DATE  = 
ORIGINATOR     = 

OBJECT_NAME    = STARLINK-36565
OBJECT_ID      = 2026-014N
CENTER_NAME    = EARTH
REF_FRAME      = TEME
TIME_SYSTEM    = UTC
MEAN_ELEMENT_THEORY = SGP/SGP4

EPOCH          = 2026-02-11T06:23:57.250176
MEAN_MOTION    = 15.80913302
ECCENTRICITY   = .00015545
INCLINATION    = 97.2842
RA_OF_ASC_NODE = 285.8911
ARG_OF_PERICENTER = 93.1485
MEAN_ANOMALY   = 266.9961

EPHEMERIS_TYPE = 0
CLASSIFICATION_TYPE = U
NORAD_CAT_ID   = 67544
ELEMENT_SET_NO = 999
REV_AT_EPOCH   = 441
BSTAR          = .11683455E-2
MEAN_MOTION_DOT = .230693E-2
MEAN_MOTION_DDOT = 0

CCSDS_OMM_VERS = 2.0
CREATION_DATE  = 
ORIGINATOR     = 

OBJECT_NAME    = STARLINK-36583
OBJECT_ID      = 2026-014P
CENTER_NAME    = EARTH
REF_FRAME      = TEME
TIME_SYSTEM    = UTC
MEAN_ELEMENT_THEORY = SGP/SGP4

EPOCH          = 2026-02-11T05:16:20.207712
MEAN_MOTION    = 15.75261520
ECCENTRICITY   = .0001361
INCLINATION    = 97.2851
RA_OF_ASC_NODE = 285.8006
ARG_OF_PERICENTER = 111.1559
MEAN_ANOMALY   = 248.9852

EPHEMERIS_TYPE = 0
CLASSIFICATION_TYPE = U
NORAD_CAT_ID   = 67545
ELEMENT_SET_NO = 999
REV_AT_EPOCH   = 440
BSTAR          = .15811833E-2
MEAN_MOTION_DOT = .243309E-2
MEAN_MOTION_DDOT = 0

